GLOBALSTAR M068 [-]     
1 32266U 07048D   24086.56043749 -.00000085  00000+0  10211-3 0  9997
2 32266  51.9870 226.7257 0000809 175.2725 263.8168 12.62782325761004
GLOBALSTAR M079 [+]     
1 37188U 10054A   24086.33118532 -.00000093  00000+0  58212-4 0  9997
2 37188  52.0043  63.1291 0000585  62.8016  84.6844 12.62267642619891
GLOBALSTAR M074 [+]     
1 37189U 10054B   24086.35754186 -.00000109  00000+0 -29778-4 0  9995
2 37189  52.0016  62.4414 0000355  87.7089  59.0712 12.62266327620501
GLOBALSTAR M076 [+]     
1 37190U 10054C   24086.38786019 -.00000100  00000+0  22642-4 0  9993
2 37190  52.0030  62.4794 0000890  93.3509  71.2961 12.62275839620223
GLOBALSTAR M077 [+]     
1 37191U 10054D   24086.53462463 -.00000081  00000+0  12926-3 0  9996
2 37191  52.0100  18.7617 0000551  84.3018  87.0562 12.62270541620619
GLOBALSTAR M075 [+]     
1 37192U 10054E   24086.47634032 -.00000084  00000+0  11266-3 0  9992
2 37192  51.9931 104.7186 0000356  77.5851  69.0336 12.62272040619465
GLOBALSTAR M073 [+]     
1 37193U 10054F   24086.56080072 -.00000088  00000+0  88888-4 0  9991
2 37193  52.0088  17.9365 0000659  77.4269  94.0513 12.62262743621303
GLOBALSTAR M083 [+]     
1 37739U 11033A   24086.41544050 -.00000057  00000+0  25874-3 0  9991
2 37739  51.9878 327.7255 0000605  66.3173 104.4177 12.62267179590301
GLOBALSTAR M088 [+]     
1 37740U 11033B   24086.60667990 -.00000101  00000+0  15612-4 0  9993
2 37740  51.9720 233.0084 0000681  87.6583 353.1110 12.62266457585877
GLOBALSTAR M091 [+]     
1 37741U 11033C   24086.60492630 -.00000068  00000+0  20164-3 0  9990
2 37741  51.9987 195.7676 0000529  84.8352 288.3523 12.62272799586669
GLOBALSTAR M085 [+]     
1 37742U 11033D   24086.43349362 -.00000055  00000+0  27166-3 0  9990
2 37742  51.9853 147.7268 0000319  82.7165 290.1496 12.62269136587158
GLOBALSTAR M081 [+]     
1 37743U 11033E   24086.47935503 -.00000039  00000+0  36261-3 0  9991
2 37743  51.9947 150.0974 0000500  77.0508  24.7752 12.62263595587300
GLOBALSTAR M089 [+]     
1 37744U 11033F   24086.34140797 -.00000066  00000+0  21234-3 0  9995
2 37744  51.9914 104.8290 0000763 108.2308 265.7178 12.62272876588132
GLOBALSTAR M084 [+]     
1 38040U 11080A   24086.38914531 -.00000059  00000+0  25007-3 0  9990
2 38040  52.0031 331.7349 0000865  98.9446  72.4913 12.62272701566112
GLOBALSTAR M080 [+]     
1 38041U 11080B   24086.44222101 -.00000056  00000+0  26591-3 0  9999
2 38041  52.0083 333.0244 0001090  94.3534  77.4212 12.62270412566246
GLOBALSTAR M082 [+]     
1 38042U 11080C   24086.49910472 -.00000082  00000+0  12379-3 0  9998
2 38042  52.0068 288.2504 0000311  54.7335 315.7128 12.62267572566960
GLOBALSTAR M092 [+]     
1 38043U 11080D   24086.58717868 -.00000085  00000+0  10500-3 0  9990
2 38043  52.0112  18.3317 0000502 101.9684  68.9461 12.62277189565421
GLOBALSTAR M090 [+]     
1 38044U 11080E   24086.32304058 -.00000087  00000+0  92697-4 0  9996
2 38044  51.9877 283.1703 0000574  78.7249  92.3891 12.62267742567059
GLOBALSTAR M086 [+]     
1 38045U 11080F   24086.55338785 -.00000082  00000+0  11906-3 0  9994
2 38045  51.9888 282.9858 0001619  67.6242 310.1760 12.62268857567033
GLOBALSTAR M097 [+]     
1 39072U 13005A   24086.57598727 -.00000085  00000+0  10606-3 0  9999
2 39072  52.0037 197.0076 0000588  84.7931 275.3003 12.62261849514284
GLOBALSTAR M093 [+]     
1 39073U 13005B   24086.54940753 -.00000069  00000+0  19609-3 0  9991
2 39073  51.9803 191.1071 0000559  76.0279 284.0650 12.62262521514239
GLOBALSTAR M094 [+]     
1 39074U 13005C   24086.31190295 -.00000078  00000+0  14578-3 0  9995
2 39074  51.9943 105.7644 0000379  64.9143 295.1763 12.62264139515818
GLOBALSTAR M096 [+]     
1 39075U 13005D   24086.48336021 -.00000063  00000+0  22903-3 0  9998
2 39075  52.0065 153.4082 0000374  70.9964 289.0943 12.62263857514755
GLOBALSTAR M078 [+]     
1 39076U 13005E   24086.61589066 -.00000103  00000+0  62104-5 0  9997
2 39076  51.9859 238.1260 0000379 244.1990 115.8837 12.62261628513394
GLOBALSTAR M095 [+]     
1 39077U 13005F   24086.56249726 -.00000107  00000+0 -16617-4 0  9990
2 39077  51.9784 235.7032 0000254  36.3665 323.7218 12.62276267513246
GLOBALSTAR M087 [+]     
1 52888U 22064A   24086.39049169 -.00000047  00000+0  15532-3 0  9996
2 52888  51.9746 137.0888 0009771 152.4648 207.6771 13.37568616 86442
